IRIDIUM 126             
1 42809U 17039G   24318.81410927  .00000715  00000+0  24819-3 0  9992
2 42809  86.3993 236.1254 0002385  84.9313 275.2155 14.34218891386760
IRIDIUM 124             
1 42810U 17039H   24318.96126460  .00000737  00000+0  21315-3 0  9998
2 42810  86.4525 172.9061 0001981  73.6856 286.4563 14.43282541391424
IRIDIUM 128             
1 42811U 17039J   24318.94437798  .00000965  00000+0  33754-3 0  9999
2 42811  86.3943 267.5961 0002469  79.6855 280.4619 14.34217797386819
IRIDIUM 121             
1 42812U 17039K   24318.97267168  .00000764  00000+0  26578-3 0  9998
2 42812  86.3992 236.0827 0002156  81.1220 279.0219 14.34220486386788
IRIDIUM 133             
1 42955U 17061A   24318.62725407  .00000824  00000+0  28706-3 0  9990
2 42955  86.3946 267.8321 0002242  84.3182 275.8269 14.34219251371561
IRIDIUM 100             
1 42956U 17061B   24318.89998834  .00000892  00000+0  31156-3 0  9994
2 42956  86.3944 267.6501 0002450  78.8591 281.2880 14.34215654371621
IRIDIUM 122             
1 42957U 17061C   24318.58919954  .00000838  00000+0  29214-3 0  9999
2 42957  86.3945 267.7784 0002595  84.0730 276.0762 14.34213584371565
IRIDIUM 129             
1 42958U 17061D   24318.40526599  .00000917  00000+0  32036-3 0  9994
2 42958  86.3944 267.9168 0002216  92.8533 267.2916 14.34215149371552
